GLOBALSTAR M023         
1 25621U 99004A   25036.13411150 -.00000104  00000+0 -34768-5 0  9999
2 25621  52.0107  95.5465 0010148 193.6924 183.6186 12.62494220199144
GLOBALSTAR M040         
1 25622U 99004B   25036.45281824 -.00000047  00000+0  31808-3 0  9993
2 25622  51.9917  98.5335 0001393 115.6527 257.4265 12.62000388198927
GLOBALSTAR M036         
1 25623U 99004C   25036.54151909 -.00000058  00000+0  36607-3 0  9998
2 25623  51.9935 227.3099 0011463 156.1631 237.3561 11.86591851163330
GLOBALSTAR M038         
1 25624U 99004D   25036.46597512 -.00000070  00000+0  21031-3 0  9993
2 25624  51.9972  90.9124 0002400 138.2830 234.6943 12.32519958186090
GLOBALSTAR M022         
1 25649U 99012A   25036.18294017 -.00000056  00000+0  36758-3 0  9998
2 25649  52.0045 289.7527 0001670 279.5886 245.0256 12.02495294160574
GLOBALSTAR M041         
1 25650U 99012B   25036.49582975 -.00000068  00000+0  22239-3 0  9999
2 25650  52.0003 166.3352 0002688  77.4921 282.6216 11.96670928162768
GLOBALSTAR M046         
1 25651U 99012C   25036.05077309 -.00000123  00000+0 -37362-3 0  9998
2 25651  52.0023 245.0676 0002397  16.2367 151.5271 12.09405003168022
GLOBALSTAR M037         
1 25652U 99012D   25035.97063105 -.00000058  00000+0  25326-3 0  9991
2 25652  51.9976 226.7112 0000914 238.2725 240.6540 12.62435561194621
